[{"OBJECT_NAME":"OBJECT A","OBJECT_ID":"2025-055A","EPOCH":"2026-03-09T22:20:06.055296","MEAN_MOTION":15.1489582,"ECCENTRICITY":0.00171574,"INCLINATION":97.6376,"RA_OF_ASC_NODE":208.1396,"ARG_OF_PERICENTER":127.0611,"MEAN_ANOMALY":233.2193,"EPHEMERIS_TYPE":0,"CLASSIFICATION_TYPE":"U","NORAD_CAT_ID":63291,"ELEMENT_SET_NO":999,"REV_AT_EPOCH":5401,"BSTAR":0.00072348746,"MEAN_MOTION_DOT":0.00013464,"MEAN_MOTION_DDOT":0},{"OBJECT_NAME":"COSMOS 375 DEB","OBJECT_ID":"1970-091J","EPOCH":"2026-03-09T16:03:50.760864","MEAN_MOTION":13.03064805,"ECCENTRICITY":0.09651875,"INCLINATION":62.8397,"RA_OF_ASC_NODE":179.4498,"ARG_OF_PERICENTER":56.3658,"MEAN_ANOMALY":312.5686,"EPHEMERIS_TYPE":0,"CLASSIFICATION_TYPE":"U","NORAD_CAT_ID":4629,"ELEMENT_SET_NO":999,"REV_AT_EPOCH":61685,"BSTAR":0.00010398577,"MEAN_MOTION_DOT":2.31e-6,"MEAN_MOTION_DDOT":0}]
